ORBCOMM FM20            
1 25416U 98046D   24155.32586438  .00001057  00000+0  41427-3 0  9994
2 25416  44.9930 172.9023 0002000 277.3518  82.7102 14.35316576349791
ORBCOMM FM16            
1 25417U 98046E   24155.54616550  .00001565  00000+0  57807-3 0  9991
2 25417  44.9929 167.4474 0004097 225.7258 134.3254 14.36329066349763
ORBCOMM FM15            
1 25418U 98046F   24155.36828174  .00001431  00000+0  53586-3 0  9991
2 25418  44.9960 172.4048 0003920 229.2126 130.8382 14.36046707349748
ORBCOMM FM14            
1 25419U 98046G   24155.45961685  .00001620  00000+0  59786-3 0  9995
2 25419  44.9951 171.0541 0002618 235.6238 124.4362 14.36231169349712
ORBCOMM FM13            
1 25420U 98046H   24155.37837140  .00001280  00000+0  48961-3 0  9991
2 25420  44.9963 176.4465 0004251 203.2355 156.8301 14.35489793348760
ORBCOMM FM21            
1 25475U 98053A   24155.60865603  .00001276  00000+0  48911-3 0  9990
2 25475  45.0087 259.7136 0001803 212.1248 147.9490 14.35414590342812
ORBCOMM FM22            
1 25476U 98053B   24155.57722560  .00001597  00000+0  59330-3 0  9994
2 25476  45.0082 257.0475 0002221 169.7446 190.3447 14.35963208342805
ORBCOMM FM23            
1 25477U 98053C   24155.56652235  .00001290  00000+0  49336-3 0  9990
2 25477  45.0087 262.3304 0001904 180.1106 179.9741 14.35460034342953
